ONEWEB-0275             
1 48993U 21060AC  24192.91368813 -.00000015  00000+0 -73102-4 0  9993
2 48993  87.9105   9.3817 0001793  84.2284 275.9051 13.16593654146622
ONEWEB-0276             
1 48994U 21060AD  24192.87093069  .00000080  00000+0  17628-3 0  9997
2 48994  87.9106   9.3865 0001738  80.7155 279.4172 13.16592766146631
ONEWEB-0277             
1 48995U 21060AE  24192.88360309 -.00000035  00000+0 -12495-3 0  9992
2 48995  87.9105   9.4218 0001967  73.8431 286.2916 13.16593108146620
ONEWEB-0278             
1 48996U 21060AF  24192.87409770  .00000008  00000+0 -13806-4 0  9995
2 48996  87.9106   9.3827 0001544  94.7531 265.3776 13.16592810146756
ONEWEB-0279             
1 48997U 21060AG  24192.73002009  .00000061  00000+0  12548-3 0  9994
2 48997  87.9106   9.4089 0002006  77.8675 282.2681 13.16596148146664
ONEWEB-0280             
1 48998U 21060AH  24192.89627092 -.00000029  00000+0 -10975-3 0  9995
2 48998  87.9107   9.3774 0001608  85.6303 274.5011 13.16593454146622
ONEWEB-0281             
1 48999U 21060AJ  24192.90259542 -.00000013  00000+0 -67403-4 0  9991
2 48999  87.9107   9.3779 0002042  93.0550 267.0815 13.16596311146699
ONEWEB-0282             
1 49000U 21060AK  24192.93268825  .00000064  00000+0  13420-3 0  9995
2 49000  87.9105   9.3885 0001716  79.3959 280.7365 13.16593703146678
